0 TITAN 3C TRANSTAGE DEB
1 26527U 65108AN  13279.82813098  .00000248  00000-0  31406-2 0  7823
2 26527 026.7703 088.1478 6784268 172.4234 356.0125 02.70649351144119
0 TITAN 3C TRANSTAGE DEB
1 26527U 65108AN  13286.84822432  .00000272  00000-0  33251-2 0  7833
2 26527 026.7946 085.2110 6784061 177.3371 355.9798 02.70654050144303
0 TITAN 3C TRANSTAGE DEB
1 26527U 65108AN  13292.75593641  .00000279  00000-0  44251-2 0  7847
2 26527 026.8134 082.7419 6784050 181.4675 352.2030 02.70658251144461
